OBJECT_NAME,OBJECT_ID,EPOCH,MEAN_MOTION,ECCENTRICITY,INCLINATION,RA_OF_ASC_NODE,ARG_OF_PERICENTER,MEAN_ANOMALY,EPHEMERIS_TYPE,CLASSIFICATION_TYPE,NORAD_CAT_ID,ELEMENT_SET_NO,REV_AT_EPOCH,BSTAR,MEAN_MOTION_DOT,MEAN_MOTION_DDOT
DMSP 5D-3 F16 (USA 172),2003-048A,2025-09-25T00:43:22.628064,14.14380610,.00073272,99.0121,284.8323,169.7033,217.7196,0,U,28054,999,13200,.14842657E-3,.238E-5,0
METEOSAT-9 (MSG-2),2005-049B,2025-09-24T12:21:06.084000,1.00266661,.00021092,8.7525,56.7061,185.5291,352.4721,0,U,28912,999,434,0,.128E-5,0
DMSP 5D-3 F17 (USA 191),2006-050A,2025-09-24T22:07:40.623744,14.14866278,.00112427,98.7419,274.9358,93.2437,267.0023,0,U,29522,999,97490,.19517633E-3,.334E-5,0
FENGYUN 3A,2008-026A,2025-09-24T19:26:45.581856,14.19474934,.00088041,98.6550,209.0562,165.5881,194.5548,0,U,32958,999,89775,.1204706E-3,.211E-5,0
GOES 14,2009-033A,2025-09-24T11:37:02.706240,1.00270914,.00037399,0.9884,86.4415,107.3349,235.6772,0,U,35491,999,392,0,-.66E-6,0
DMSP 5D-3 F18 (USA 210),2009-057A,2025-09-24T22:32:45.863808,14.14702161,.00100253,98.8723,244.7734,287.9454,72.0626,0,U,35951,999,82208,.24491788E-3,.427E-5,0
EWS-G2 (GOES 15),2010-008A,2025-09-24T15:51:06.414624,1.00272376,.00050999,0.6038,85.4757,138.1378,79.2513,0,U,36411,999,5697,0,.39E-6,0
COMS 1,2010-032A,2025-09-24T23:01:07.683744,1.00273732,.00007063,4.1432,78.7901,83.3651,315.3241,0,U,36744,999,4843,0,-.341E-5,0
FENGYUN 3B,2010-059A,2025-09-25T00:33:31.385952,14.14756949,.00215355,99.0038,307.3974,215.9041,164.2544,0,U,37214,999,76993,.11429672E-3,.175E-5,0
SUOMI NPP,2011-061A,2025-09-24T23:04:03.855072,14.19520012,.00020021,98.7633,206.0638,44.8823,315.2515,0,U,37849,999,72081,.11596388E-3,.2E-5,0
METEOSAT-10 (MSG-3),2012-035B,2025-09-24T22:30:38.627712,1.00276772,.00001526,4.0384,61.8792,209.9926,70.0691,0,U,38552,999,4819,0,-.1E-7,0
METOP-B,2012-049A,2025-09-24T22:51:42.897312,14.21467185,.0002406,98.6686,319.2102,53.4809,306.6589,0,U,38771,999,67558,.46950639E-3,.983E-5,0
INSAT-3D,2013-038B,2025-09-24T23:01:30.147744,1.00267787,.00020307,1.2353,86.0176,131.4068,261.4881,0,U,39216,999,4442,0,-.337E-5,0
FENGYUN 3C,2013-052A,2025-09-24T22:32:38.899968,14.15657168,.00158245,98.4667,249.4991,68.6090,291.6772,0,U,39260,999,62103,.14137818E-3,.236E-5,0
METEOR-M 2,2014-037A,2025-09-24T23:25:57.879840,14.21336733,.00069558,98.4804,248.6144,87.4081,272.7893,0,U,40069,999,58164,.16040226E-3,.308E-5,0
HIMAWARI-8,2014-060A,2025-09-24T23:04:37.348896,1.00272201,.00011707,0.0152,168.3406,28.9354,293.5893,0,U,40267,999,4009,0,-.274E-5,0
FENGYUN 2G,2014-090A,2025-09-24T22:52:53.474016,1.00276110,.00032925,4.9639,76.0314,178.0034,192.8096,0,U,40367,999,3934,0,-.299E-5,0
METEOSAT-11 (MSG-4),2015-034A,2025-09-24T20:44:23.830080,1.00276341,.00006883,2.5338,72.1925,146.3062,105.8681,0,U,40732,999,455,0,.66E-6,0
ELEKTRO-L 2,2015-074A,2025-09-24T18:54:52.907904,1.00271370,.00024351,6.0210,73.7807,173.1688,26.1277,0,U,41105,999,3584,0,-.113E-5,0
INSAT-3DR,2016-054A,2025-09-24T21:02:52.058688,1.00272752,.00123378,0.0758,88.8371,174.8288,130.0216,0,U,41752,999,3315,0,-.76E-6,0
HIMAWARI-9,2016-064A,2025-09-24T23:04:44.837184,1.00274154,.00036765,0.0199,189.0346,61.7383,240.1998,0,U,41836,999,3255,0,0,0
GOES 16,2016-071A,2025-09-24T13:26:38.896224,1.00271538,.00022871,0.1138,80.0488,133.0495,247.5248,0,U,41866,999,3244,0,-.9E-6,0
FENGYUN 4A,2016-077A,2025-09-24T23:34:38.703360,1.00271160,.000628,1.6434,83.0970,159.8915,238.4744,0,U,41882,999,3227,0,-.354E-5,0
CYGFM05,2016-078A,2025-09-24T05:25:10.710624,15.43482510,.00088528,34.9595,204.9189,174.4220,185.6600,0,U,41884,999,48745,.54180309E-3,.25054E-3,0
CYGFM04,2016-078B,2025-09-24T22:47:36.141504,15.45731641,.00087264,34.9342,176.9746,208.8428,151.1811,0,U,41885,999,48772,.53581436E-3,.26765E-3,0
CYGFM02,2016-078C,2025-09-24T22:56:41.665056,15.46925143,.0010028,34.9431,176.3200,203.8252,156.2006,0,U,41886,999,48784,.54730556E-3,.28513E-3,0
CYGFM01,2016-078D,2025-09-24T05:58:23.119680,15.43932606,.00080727,34.9429,207.6950,163.5545,196.5438,0,U,41887,999,48739,.53512262E-3,.25121E-3,0
CYGFM08,2016-078E,2025-09-24T22:36:34.978464,15.45024511,.00105334,34.9456,187.0041,193.2604,166.7840,0,U,41888,999,48772,.54452163E-3,.26563E-3,0
CYGFM07,2016-078G,2025-09-24T20:15:17.550432,15.45675755,.00092224,34.9473,177.0519,212.5499,147.4654,0,U,41890,999,48772,.53540262E-3,.26696E-3,0
CYGFM03,2016-078H,2025-09-24T19:15:43.913376,15.45390935,.00077674,34.9423,179.1709,199.8670,160.1749,0,U,41891,999,48769,.54617779E-3,.26957E-3,0
FENGYUN 3D,2017-072A,2025-09-24T22:38:23.383680,14.19645670,.00025501,98.9751,233.1234,85.2491,274.8976,0,U,43010,999,40735,.12556287E-3,.219E-5,0
