DMSP 5D-3 F16 (USA 172) 
1 28054U 03048A   25268.03012301  .00000238  00000+0  14843-3 0  9992
2 28054  99.0121 284.8323 0007327 169.7033 217.7196 14.14380610132008
METEOSAT-9 (MSG-2)      
1 28912U 05049B   25267.51465375  .00000128  00000+0  00000+0 0  9997
2 28912   8.7525  56.7061 0002109 185.5291 352.4721  1.00266661  4342
DMSP 5D-3 F17 (USA 191) 
1 29522U 06050A   25267.92199796  .00000334  00000+0  19518-3 0  9991
2 29522  98.7419 274.9358 0011242  93.2437 267.0023 14.14866278974902
FENGYUN 3A              
1 32958U 08026A   25267.81024979  .00000211  00000+0  12047-3 0  9995
2 32958  98.6550 209.0562 0008804 165.5881 194.5548 14.19474934897758
GOES 14                 
1 35491U 09033A   25267.48405910 -.00000066  00000+0  00000+0 0  9991
2 35491   0.9884  86.4415 0003739 107.3349 235.6772  1.00270914  3920
DMSP 5D-3 F18 (USA 210) 
1 35951U 09057A   25267.93941972  .00000427  00000+0  24492-3 0  9996
2 35951  98.8723 244.7734 0010025 287.9454  72.0626 14.14702161822080
EWS-G2 (GOES 15)        
1 36411U 10008A   25267.66049091  .00000039  00000+0  00000+0 0  9991
2 36411   0.6038  85.4757 0005099 138.1378  79.2513  1.00272376 56976
COMS 1                  
1 36744U 10032A   25267.95911671 -.00000341  00000+0  00000+0 0  9998
2 36744   4.1432  78.7901 0000706  83.3651 315.3241  1.00273732 48434
FENGYUN 3B              
1 37214U 10059A   25268.02327993  .00000175  00000+0  11430-3 0  9994
2 37214  99.0038 307.3974 0021535 215.9041 164.2544 14.14756949769939
SUOMI NPP               
1 37849U 11061A   25267.96115573  .00000200  00000+0  11596-3 0  9995
2 37849  98.7633 206.0638 0002002  44.8823 315.2515 14.19520012720812
METEOSAT-10 (MSG-3)     
1 38552U 12035B   25267.93794708 -.00000001  00000+0  00000+0 0  9993
2 38552   4.0384  61.8792 0000152 209.9926  70.0691  1.00276772 48199
METOP-B                 
1 38771U 12049A   25267.95257983  .00000983  00000+0  46951-3 0  9999
2 38771  98.6686 319.2102 0002406  53.4809 306.6589 14.21467185675587
INSAT-3D                
1 39216U 13038B   25267.95937671 -.00000337  00000+0  00000+0 0  9997
2 39216   1.2353  86.0176 0002030 131.4068 261.4881  1.00267787 44425
FENGYUN 3C              
1 39260U 13052A   25267.93933912  .00000236  00000+0  14138-3 0  9992
2 39260  98.4667 249.4991 0015824  68.6090 291.6772 14.15657168621039
METEOR-M 2              
1 40069U 14037A   25267.97636435  .00000308  00000+0  16040-3 0  9993
2 40069  98.4804 248.6144 0006955  87.4081 272.7893 14.21336733581641
HIMAWARI-8              
1 40267U 14060A   25267.96154339 -.00000274  00000+0  00000+0 0  9994
2 40267   0.0152 168.3406 0001170  28.9354 293.5893  1.00272201 40094
FENGYUN 2G              
1 40367U 14090A   25267.95339669 -.00000299  00000+0  00000+0 0  9995
2 40367   4.9639  76.0314 0003292 178.0034 192.8096  1.00276110 39345
METEOSAT-11 (MSG-4)     
1 40732U 15034A   25267.86416470  .00000066  00000+0  00000+0 0  9997
2 40732   2.5338  72.1925 0000688 146.3062 105.8681  1.00276341  4556
ELEKTRO-L 2             
1 41105U 15074A   25267.78811236 -.00000113  00000+0  00000+0 0  9990
2 41105   6.0210  73.7807 0002435 173.1688  26.1277  1.00271370 35848
INSAT-3DR               
1 41752U 16054A   25267.87699142 -.00000076  00000+0  00000+0 0  9995
2 41752   0.0758  88.8371 0012337 174.8288 130.0216  1.00272752 33151
HIMAWARI-9              
1 41836U 16064A   25267.96163006  .00000000  00000+0  00000+0 0  9990
2 41836   0.0199 189.0346 0003676  61.7383 240.1998  1.00274154 32556
GOES 16                 
1 41866U 16071A   25267.56017241 -.00000090  00000+0  00000+0 0  9996
2 41866   0.1138  80.0488 0002287 133.0495 247.5248  1.00271538 32444
FENGYUN 4A              
1 41882U 16077A   25267.98239240 -.00000354  00000+0  00000+0 0  9994
2 41882   1.6434  83.0970 0006280 159.8915 238.4744  1.00271160 32278
CYGFM05                 
1 41884U 16078A   25267.22581841  .00025054  00000+0  54180-3 0  9996
2 41884  34.9595 204.9189 0008852 174.4220 185.6600 15.43482510487455
CYGFM04                 
1 41885U 16078B   25267.94972386  .00026765  00000+0  53581-3 0  9998
2 41885  34.9342 176.9746 0008726 208.8428 151.1811 15.45731641487721
CYGFM02                 
1 41886U 16078C   25267.95603779  .00028513  00000+0  54731-3 0  9998
2 41886  34.9431 176.3200 0010028 203.8252 156.2006 15.46925143487846
CYGFM01                 
1 41887U 16078D   25267.24887870  .00025121  00000+0  53512-3 0  9995
2 41887  34.9429 207.6950 0008072 163.5545 196.5438 15.43932606487392
CYGFM08                 
1 41888U 16078E   25267.94207151  .00026563  00000+0  54452-3 0  9996
2 41888  34.9456 187.0041 0010533 193.2604 166.7840 15.45024511487728
CYGFM07                 
1 41890U 16078G   25267.84395313  .00026696  00000+0  53540-3 0  9990
2 41890  34.9473 177.0519 0009222 212.5499 147.4654 15.45675755487720
CYGFM03                 
1 41891U 16078H   25267.80259159  .00026957  00000+0  54618-3 0  9991
2 41891  34.9423 179.1709 0007767 199.8670 160.1749 15.45390935487697
FENGYUN 3D              
1 43010U 17072A   25267.94332620  .00000219  00000+0  12556-3 0  9999
2 43010  98.9751 233.1234 0002550  85.2491 274.8976 14.19645670407353
